FENGYUN 1C DEB          
1 30303U 99025ZQ  26063.66016145  .00006527  00000+0  26255-2 0  9991
2 30303  99.0113 148.3822 0073564  49.9580 310.8022 14.26959907982032
FENGYUN 1C DEB          
1 30304U 99025ZR  26062.40986369  .00002849  00000+0  14284-2 0  9999
2 30304  99.0231 140.8930 0075897 179.0130 181.1207 14.15949498979603
FENGYUN 1C DEB          
1 30305U 99025ZS  26064.31392920  .00000155  00000+0  20500-3 0  9993
2 30305  98.5953 359.3663 0263785 244.9536 271.6533 13.60283629948964
FENGYUN 1C DEB          
1 30306U 99025ZT  26064.10773501  .00003034  00000+0  11400-2 0  9996
2 30306  98.5779 108.8536 0114793 116.1959 245.1080 14.28679239988575
FENGYUN 1C DEB          
1 30309U 99025ZW  26063.60177421  .00000460  00000+0  37134-3 0  9995
2 30309  99.2115 125.5134 0092235 330.4141  29.1819 13.93588216971735
FENGYUN 1C DEB          
1 30310U 99025ZX  26064.02809439  .00001197  00000+0  55013-3 0  9999
2 30310  98.6600  85.5131 0241581 123.9945 238.4433 14.08644296978909
FENGYUN 1C DEB          
1 30311U 99025ZY  26064.21498833  .00000381  00000+0  38268-3 0  9990
2 30311  99.1324 161.8322 0163802 338.7089  20.7300 13.77963091960967
FENGYUN 1C DEB          
1 30312U 99025ZZ  26064.22710321  .00009968  00000+0  27221-2 0  9997
2 30312  98.8575 152.2794 0008138 318.2972  62.6871 14.47472215991135
FENGYUN 1C DEB          
1 30313U 99025AAA 26064.22144066  .00004656  00000+0  19230-2 0  9995
2 30313  98.8675 156.4027 0058320 100.4106 288.5254 14.26294871982658
FENGYUN 1C DEB          
1 30314U 99025AAB 26063.51016241  .00002856  00000+0  17494-2 0  9990
2 30314  98.3936 252.8234 0141919 127.0800 234.3439 14.01613725972545
FENGYUN 1C DEB          
1 30315U 99025AAC 26063.53707870  .00000793  00000+0  39639-3 0  9992
2 30315  98.6020  75.6494 0036226 121.6222 358.9772 14.19197989988676
FENGYUN 1C DEB          
1 30316U 99025AAD 26064.26197149  .00014587  00000+0  31437-2 0  9999
2 30316  98.6448 174.7857 0037528 146.9848 213.3704 14.58083968995384
FENGYUN 1C DEB          
1 30317U 99025AAE 26063.51002028  .00000407  00000+0  26855-3 0  9993
2 30317  98.7908  66.6806 0025972  47.9561 312.3813 14.06994009981636
FENGYUN 1C DEB          
1 30320U 99025AAH 26064.13271811  .00000106  00000+0  10159-3 0  9990
2 30320  99.1739 128.5296 0086444  69.1478 320.9808 13.98617452975593
FENGYUN 1C DEB          
1 30321U 99025AAJ 26063.80588453  .00000816  00000+0  42155-3 0  9996
2 30321  98.6609  65.6366 0060805   2.8899 176.0416 14.16761373987059
FENGYUN 1C DEB          
1 30322U 99025AAK 26064.09193227  .00002035  00000+0  11661-2 0  9992
2 30322  98.3973 280.8931 0127825  18.7707 341.8114 14.06435301973577
