[{"OBJECT_NAME":"FENGYUN 1C DEB","OBJECT_ID":"1999-025ZQ","EPOCH":"2026-03-04T15:50:37.949280","MEAN_MOTION":14.26959907,"ECCENTRICITY":0.00735646,"INCLINATION":99.0113,"RA_OF_ASC_NODE":148.3822,"ARG_OF_PERICENTER":49.958,"MEAN_ANOMALY":310.8022,"EPHEMERIS_TYPE":0,"CLASSIFICATION_TYPE":"U","NORAD_CAT_ID":30303,"ELEMENT_SET_NO":999,"REV_AT_EPOCH":98203,"BSTAR":0.0026254797,"MEAN_MOTION_DOT":6.527e-5,"MEAN_MOTION_DDOT":0},{"OBJECT_NAME":"FENGYUN 1C DEB","OBJECT_ID":"1999-025ZR","EPOCH":"2026-03-03T09:50:12.222816","MEAN_MOTION":14.15949498,"ECCENTRICITY":0.00758971,"INCLINATION":99.0231,"RA_OF_ASC_NODE":140.893,"ARG_OF_PERICENTER":179.013,"MEAN_ANOMALY":181.1207,"EPHEMERIS_TYPE":0,"CLASSIFICATION_TYPE":"U","NORAD_CAT_ID":30304,"ELEMENT_SET_NO":999,"REV_AT_EPOCH":97960,"BSTAR":0.0014284004,"MEAN_MOTION_DOT":2.849e-5,"MEAN_MOTION_DDOT":0},{"OBJECT_NAME":"FENGYUN 1C DEB","OBJECT_ID":"1999-025ZS","EPOCH":"2026-03-05T07:32:03.482880","MEAN_MOTION":13.60283629,"ECCENTRICITY":0.02637855,"INCLINATION":98.5953,"RA_OF_ASC_NODE":359.3663,"ARG_OF_PERICENTER":244.9536,"MEAN_ANOMALY":271.6533,"EPHEMERIS_TYPE":0,"CLASSIFICATION_TYPE":"U","NORAD_CAT_ID":30305,"ELEMENT_SET_NO":999,"REV_AT_EPOCH":94896,"BSTAR":0.00020499508,"MEAN_MOTION_DOT":1.55e-6,"MEAN_MOTION_DDOT":0},{"OBJECT_NAME":"FENGYUN 1C DEB","OBJECT_ID":"1999-025ZT","EPOCH":"2026-03-05T02:35:08.304864","MEAN_MOTION":14.28679239,"ECCENTRICITY":0.01147934,"INCLINATION":98.5779,"RA_OF_ASC_NODE":108.8536,"ARG_OF_PERICENTER":116.1959,"MEAN_ANOMALY":245.108,"EPHEMERIS_TYPE":0,"CLASSIFICATION_TYPE":"U","NORAD_CAT_ID":30306,"ELEMENT_SET_NO":999,"REV_AT_EPOCH":98857,"BSTAR":0.0011399821,"MEAN_MOTION_DOT":3.034e-5,"MEAN_MOTION_DDOT":0},{"OBJECT_NAME":"FENGYUN 1C DEB","OBJECT_ID":"1999-025ZW","EPOCH":"2026-03-04T14:26:33.291744","MEAN_MOTION":13.93588216,"ECCENTRICITY":0.0092235,"INCLINATION":99.2115,"RA_OF_ASC_NODE":125.5134,"ARG_OF_PERICENTER":330.4141,"MEAN_ANOMALY":29.1819,"EPHEMERIS_TYPE":0,"CLASSIFICATION_TYPE":"U","NORAD_CAT_ID":30309,"ELEMENT_SET_NO":999,"REV_AT_EPOCH":97173,"BSTAR":0.00037134,"MEAN_MOTION_DOT":4.6e-6,"MEAN_MOTION_DDOT":0},{"OBJECT_NAME":"FENGYUN 1C DEB","OBJECT_ID":"1999-025ZX","EPOCH":"2026-03-05T00:40:27.355296","MEAN_MOTION":14.08644296,"ECCENTRICITY":0.02415814,"INCLINATION":98.66,"RA_OF_ASC_NODE":85.5131,"ARG_OF_PERICENTER":123.9945,"MEAN_ANOMALY":238.4433,"EPHEMERIS_TYPE":0,"CLASSIFICATION_TYPE":"U","NORAD_CAT_ID":30310,"ELEMENT_SET_NO":999,"REV_AT_EPOCH":97890,"BSTAR":0.00055013251,"MEAN_MOTION_DOT":1.197e-5,"MEAN_MOTION_DDOT":0},{"OBJECT_NAME":"FENGYUN 1C DEB","OBJECT_ID":"1999-025ZY","EPOCH":"2026-03-05T05:09:34.991712","MEAN_MOTION":13.77963091,"ECCENTRICITY":0.01638025,"INCLINATION":99.1324,"RA_OF_ASC_NODE":161.8322,"ARG_OF_PERICENTER":338.7089,"MEAN_ANOMALY":20.73,"EPHEMERIS_TYPE":0,"CLASSIFICATION_TYPE":"U","NORAD_CAT_ID":30311,"ELEMENT_SET_NO":999,"REV_AT_EPOCH":96096,"BSTAR":0.00038267626,"MEAN_MOTION_DOT":3.81e-6,"MEAN_MOTION_DDOT":0},{"OBJECT_NAME":"FENGYUN 1C DEB","OBJECT_ID":"1999-025ZZ","EPOCH":"2026-03-05T05:27:01.717344","MEAN_MOTION":14.47472215,"ECCENTRICITY":0.00081387,"INCLINATION":98.8575,"RA_OF_ASC_NODE":152.2794,"ARG_OF_PERICENTER":318.2972,"MEAN_ANOMALY":62.6871,"EPHEMERIS_TYPE":0,"CLASSIFICATION_TYPE":"U","NORAD_CAT_ID":30312,"ELEMENT_SET_NO":999,"REV_AT_EPOCH":99113,"BSTAR":0.0027221141,"MEAN_MOTION_DOT":9.968e-5,"MEAN_MOTION_DDOT":0},{"OBJECT_NAME":"FENGYUN 1C DEB","OBJECT_ID":"1999-025AAA","EPOCH":"2026-03-05T05:18:52.473024","MEAN_MOTION":14.26294871,"ECCENTRICITY":0.00583208,"INCLINATION":98.8675,"RA_OF_ASC_NODE":156.4027,"ARG_OF_PERICENTER":100.4106,"MEAN_ANOMALY":288.5254,"EPHEMERIS_TYPE":0,"CLASSIFICATION_TYPE":"U","NORAD_CAT_ID":30313,"ELEMENT_SET_NO":999,"REV_AT_EPOCH":98265,"BSTAR":0.0019230026,"MEAN_MOTION_DOT":4.656e-5,"MEAN_MOTION_DDOT":0},{"OBJECT_NAME":"FENGYUN 1C DEB","OBJECT_ID":"1999-025AAB","EPOCH":"2026-03-04T12:14:38.032224","MEAN_MOTION":14.01613725,"ECCENTRICITY":0.01419192,"INCLINATION":98.3936,"RA_OF_ASC_NODE":252.8234,"ARG_OF_PERICENTER":127.08,"MEAN_ANOMALY":234.3439,"EPHEMERIS_TYPE":0,"CLASSIFICATION_TYPE":"U","NORAD_CAT_ID":30314,"ELEMENT_SET_NO":999,"REV_AT_EPOCH":97254,"BSTAR":0.001749408,"MEAN_MOTION_DOT":2.856e-5,"MEAN_MOTION_DDOT":0},{"OBJECT_NAME":"FENGYUN 1C DEB","OBJECT_ID":"1999-025AAC","EPOCH":"2026-03-04T12:53:23.599680","MEAN_MOTION":14.19197989,"ECCENTRICITY":0.0036226,"INCLINATION":98.602,"RA_OF_ASC_NODE":75.6494,"ARG_OF_PERICENTER":121.6222,"MEAN_ANOMALY":358.9772,"EPHEMERIS_TYPE":0,"CLASSIFICATION_TYPE":"U","NORAD_CAT_ID":30315,"ELEMENT_SET_NO":999,"REV_AT_EPOCH":98867,"BSTAR":0.00039639,"MEAN_MOTION_DOT":7.93e-6,"MEAN_MOTION_DDOT":0},{"OBJECT_NAME":"FENGYUN 1C DEB","OBJECT_ID":"1999-025AAD","EPOCH":"2026-03-05T06:17:14.336736","MEAN_MOTION":14.58083968,"ECCENTRICITY":0.00375282,"INCLINATION":98.6448,"RA_OF_ASC_NODE":174.7857,"ARG_OF_PERICENTER":146.9848,"MEAN_ANOMALY":213.3704,"EPHEMERIS_TYPE":0,"CLASSIFICATION_TYPE":"U","NORAD_CAT_ID":30316,"ELEMENT_SET_NO":999,"REV_AT_EPOCH":99538,"BSTAR":0.0031436651,"MEAN_MOTION_DOT":0.00014587,"MEAN_MOTION_DDOT":0},{"OBJECT_NAME":"FENGYUN 1C DEB","OBJECT_ID":"1999-025AAE","EPOCH":"2026-03-04T12:14:25.752192","MEAN_MOTION":14.06994009,"ECCENTRICITY":0.0025972,"INCLINATION":98.7908,"RA_OF_ASC_NODE":66.6806,"ARG_OF_PERICENTER":47.9561,"MEAN_ANOMALY":312.3813,"EPHEMERIS_TYPE":0,"CLASSIFICATION_TYPE":"U","NORAD_CAT_ID":30317,"ELEMENT_SET_NO":999,"REV_AT_EPOCH":98163,"BSTAR":0.00026855,"MEAN_MOTION_DOT":4.07e-6,"MEAN_MOTION_DDOT":0},{"OBJECT_NAME":"FENGYUN 1C DEB","OBJECT_ID":"1999-025AAH","EPOCH":"2026-03-05T03:11:06.844704","MEAN_MOTION":13.98617452,"ECCENTRICITY":0.00864443,"INCLINATION":99.1739,"RA_OF_ASC_NODE":128.5296,"ARG_OF_PERICENTER":69.1478,"MEAN_ANOMALY":320.9808,"EPHEMERIS_TYPE":0,"CLASSIFICATION_TYPE":"U","NORAD_CAT_ID":30320,"ELEMENT_SET_NO":999,"REV_AT_EPOCH":97559,"BSTAR":0.00010159102,"MEAN_MOTION_DOT":1.06e-6,"MEAN_MOTION_DDOT":0},{"OBJECT_NAME":"FENGYUN 1C DEB","OBJECT_ID":"1999-025AAJ","EPOCH":"2026-03-04T19:20:28.423392","MEAN_MOTION":14.16761373,"ECCENTRICITY":0.00608052,"INCLINATION":98.6609,"RA_OF_ASC_NODE":65.6366,"ARG_OF_PERICENTER":2.8899,"MEAN_ANOMALY":176.0416,"EPHEMERIS_TYPE":0,"CLASSIFICATION_TYPE":"U","NORAD_CAT_ID":30321,"ELEMENT_SET_NO":999,"REV_AT_EPOCH":98705,"BSTAR":0.00042154954,"MEAN_MOTION_DOT":8.16e-6,"MEAN_MOTION_DDOT":0},{"OBJECT_NAME":"FENGYUN 1C DEB","OBJECT_ID":"1999-025AAK","EPOCH":"2026-03-05T02:12:22.948128","MEAN_MOTION":14.06435301,"ECCENTRICITY":0.01278253,"INCLINATION":98.3973,"RA_OF_ASC_NODE":280.8931,"ARG_OF_PERICENTER":18.7707,"MEAN_ANOMALY":341.8114,"EPHEMERIS_TYPE":0,"CLASSIFICATION_TYPE":"U","NORAD_CAT_ID":30322,"ELEMENT_SET_NO":999,"REV_AT_EPOCH":97357,"BSTAR":0.0011660891,"MEAN_MOTION_DOT":2.035e-5,"MEAN_MOTION_DDOT":0}]
